IRIDIUM 155             
1 43573U 18061E   24308.24150982  .00000089  00000+0  24640-4 0  9992
2 43573  86.3915 303.6369 0002415  89.0305 271.1167 14.34217373328668
IRIDIUM 154             
1 43574U 18061F   24308.43178353  .00000219  00000+0  71196-4 0  9999
2 43574  86.3926 303.6621 0002092  91.5698 268.5737 14.34218894328736
IRIDIUM 163             
1 43575U 18061G   24307.92437679  .00000260  00000+0  85804-4 0  9999
2 43575  86.3921 303.8085 0002320  94.8230 265.3230 14.34219516328634
IRIDIUM 156             
1 43576U 18061H   24308.24785270 -.00000009  00000+0 -10307-4 0  9998
2 43576  86.3919 303.6799 0002388  85.1779 274.9690 14.34217496328661
IRIDIUM 164             
1 43577U 18061J   24308.43812981  .00000003  00000+0 -59385-5 0  9993
2 43577  86.3922 303.6311 0002039  84.4310 275.7119 14.34217656328744
IRIDIUM 159             
1 43578U 18061K   24308.47618473 -.00000061  00000+0 -28847-4 0  9991
2 43578  86.3921 303.5642 0001987  89.3925 270.7499 14.34217435328715
IRIDIUM 180             
1 43922U 19002A   24308.19660732  .00000722  00000+0  25065-3 0  9994
2 43922  86.3980 240.5196 0002158  82.8913 277.2529 14.34216372304329
IRIDIUM 176             
1 43923U 19002B   24308.45164824  .00005411  00000+0  85335-3 0  9991
2 43923  86.6109 240.4232 0002182  94.9888 265.1578 14.72270409312331
IRIDIUM 168             
1 43924U 19002C   24308.32979559  .00001152  00000+0  40434-3 0  9996
2 43924  86.3982 240.5243 0002083  85.9920 274.1514 14.34219076304284
IRIDIUM 173             
1 43925U 19002D   24307.89848843  .00000047  00000+0  96281-5 0  9994
2 43925  86.3982 240.6180 0002056  82.4944 277.6485 14.34216293304209
IRIDIUM 169             
1 43926U 19002E   24308.44552959  .00001860  00000+0  60154-3 0  9999
2 43926  86.4188 272.0233 0003755 102.2821 257.8798 14.38605020305290
IRIDIUM 172             
1 43927U 19002F   24307.89216978  .00000335  00000+0  11267-3 0  9993
2 43927  86.3979 240.6272 0002078  82.0909 278.0523 14.34208957304217
IRIDIUM 175             
1 43928U 19002G   24308.17435342  .00006003  00000+0  94753-3 0  9993
2 43928  86.1558 205.8764 0003106  76.8357 283.3206 14.72244100312284
IRIDIUM 171             
1 43929U 19002H   24307.87313357  .00000454  00000+0  15499-3 0  9995
2 43929  86.3985 240.8752 0002231  74.8196 285.3246 14.34216573304204
IRIDIUM 170             
1 43930U 19002J   24308.32189834  .00004180  00000+0  65866-3 0  9992
2 43930  86.6110 240.4827 0002407  79.4506 280.6982 14.72253428312328
IRIDIUM 167             
1 43931U 19002K   24307.86678076  .00000102  00000+0  29325-4 0  9993
2 43931  86.3977 240.6545 0002496  80.4809 279.6669 14.34208405304203
IRIDIUM 181             
1 56726U 23068S   24308.22558476  .00000814  00000+0  23475-3 0  9997
2 56726  86.8578 301.0179 0002365  79.9166 280.2302 14.43585233 77194
IRIDIUM 177             
1 56727U 23068T   24308.34934411  .00007726  00000+0  10125-2 0  9994
2 56727  86.1975 249.2538 0003401  87.0230 273.1381 14.80233999 78969
IRIDIUM 174             
1 56728U 23068U   24308.34388537  .00007604  00000+0  99610-3 0  9999
2 56728  86.1979 249.3712 0003171  85.2744 274.8839 14.80250222 78967
IRIDIUM 178             
1 56729U 23068V   24307.93286616  .00007772  00000+0  10183-2 0  9992
2 56729  86.5735 273.6100 0002901  82.6051 277.5500 14.80245232 78909
IRIDIUM 179             
1 56730U 23068W   24308.40066516  .00004479  00000+0  58602-3 0  9992
2 56730  86.6737 279.3022 0003347  81.6452 278.5149 14.80217103 78972
